Name,Address,Latitude,Longitude,Username,Email
Apollo Hospitals Guwahati,"Lotus Tower, International Hospitals, GS Rd, Christian Basti, Guwahati, Assam 781005, India",26.15394800,91.78088550,N/A,N/A
"Narayana Hospital, Guwahati","Civil Hospital Complex Greenland Restaurant Tularam Bafna, Amingaon, Guwahati, Assam 781031, India",26.20771610,91.67766020,narayana-hospital-guwahati,narayana-hospital-guwahati@example.com
Hayat Hospital,"Kahilipara Main Rd, Odalbakra, Kahilipara, Guwahati, Assam 781034, India",26.13909020,91.74621660,hayat-hospital,hayat-hospital@example.com
"GNRC Hospitals, Dispur Unit","GNRC Rd, Super Market, Dispur, Rukmini Gaon, Guwahati, Assam 781005, India",26.13907170,91.79462140,gnrc-hospitals-dispur-unit,gnrc-hospitals-dispur-unit@example.com
Apollo Excelcare Hospital,"NH-37, near Ganesh Mandir, Paschim Boragaon, Guwahati, Assam 781033, India",26.12770420,91.68126300,apollo-excelcare-hospital,apollo-excelcare-hospital@example.com
North Guwahati Multi-speciality Hospital,"NH-37, DC Office Road, Point, Amingaon, Guwahati, Assam 781031, India",26.19241270,91.66944340,north-guwahati-multi-speciality-hospital,north-guwahati-multi-speciality-hospital@example.com
HEALTH CITY HOSPITAL,"opp. Bodoland Guest House, Uday Nagar, Khanapara, Guwahati, Assam 781022, India",26.11725330,91.81530460,health-city-hospital,health-city-hospital@example.com
down town hospital,"GS Rd, Bormotoria, Guwahati, Assam 781006, India",26.13863070,91.79958840,down-town-hospital,down-town-hospital@example.com
"GNRC Medical, North Guwahati","6M3V+H3H, IIT Road Near IIT Sila Grant, Amingaon, Guwahati, Assam 781030, India",26.20255310,91.69352040,gnrc-medical-north-guwahati,gnrc-medical-north-guwahati@example.com
GATE Hospital,"2 Mathgharia Mother Teresa Road, Zoo-Narengi Rd, BG Tiniali, Noonmati, Guwahati, Assam 781020, India",26.17829620,91.80390930,gate-hospital,gate-hospital@example.com
Pratiksha Hospital,"VIP Rd, Borbari, Guwahati, Assam 781036, India",26.15849550,91.81187240,pratiksha-hospital,pratiksha-hospital@example.com
Wintrobe Hospital,"GNB Rd, Ambari, Guwahati, Assam 781001, India",26.18542400,91.75604870,wintrobe-hospital,wintrobe-hospital@example.com
Nemcare Super Speciality Hospital,"GMC Hospital Rd, Bhangagarh, Guwahati, Assam 781005, India",26.16406870,91.76892420,nemcare-super-speciality-hospital,nemcare-super-speciality-hospital@example.com
Ayursundra Superspecialty Hospital,"Bhabanand Boro Path Opposite: DPS School Ahom Gaon, GARCHUK, Guwahati, Assam 781035, India",26.10903500,91.71932500,ayursundra-superspecialty-hospital,ayursundra-superspecialty-hospital@example.com
Arya Hospital,"AM Rd, opposite Apsara Cinema, Manipuri Rajbari, Rehabari, Guwahati, Assam 781008, India",26.17476990,91.75242630,arya-hospital,arya-hospital@example.com
Swagat Super Speciality Hospital and Surgical institute,"Gate No. 4, Mahapurush Damodardev Path, near Railway Colony, Maligaon, Guwahati, Assam 781011, India",26.16051320,91.70733780,swagat-super-speciality-hospital-and-surgical-institute,swagat-super-speciality-hospital-and-surgical-institute@example.com
Guwahati Metro Hospital,"Uday Nagar, Khanapara, opp. Bodoland Guest House, Guwahati, Assam 781022, India",26.11743370,91.81579410,guwahati-metro-hospital,guwahati-metro-hospital@example.com
GNRC Hospital Six-Mile Branch,"GS Road Sixmile, Jaya Nagar, turning, Guwahati, Assam 781022, India",26.13112640,91.80780040,gnrc-hospital-six-mile-branch,gnrc-hospital-six-mile-branch@example.com
Dispur Polyclinic and Hospitals Pvt. Ltd.,"Hengrabari Rd, GMC Ward Number 44, Dispur, Ganeshguri, Guwahati, Assam 781006, India",26.14952620,91.78724280,dispur-polyclinic-and-hospitals-pvt-ltd,dispur-polyclinic-and-hospitals-pvt-ltd@example.com
Sun Valley Hospital,"GS Rd, Mathura Nagar, Bormotoria, Guwahati, Assam 781022, India",26.13828790,91.80106810,sun-valley-hospital,sun-valley-hospital@example.com
Dispur Hospital,"4QXP+VVF, GMC Ward Number 44, Manik Nagar, Guwahati, Assam 781006, India",26.14969040,91.78717030,dispur-hospital,dispur-hospital@example.com
Marwari Hospital,"B-3, Sati Joymati Rd, Athgaon, Guwahati, Assam 781008, India",26.17194600,91.74010460,marwari-hospital,marwari-hospital@example.com
Global Hospital of Surgery,"4QFJ+CQ2, Dargah Rd, Sijubari, Hatigaon, Guwahati, Assam 781038, India",26.12882480,91.78050840,global-hospital-of-surgery,global-hospital-of-surgery@example.com
Akanksha Hospital,"NH 37, near Hotel Radisson Blue, Gotanagar, Tetelia, Guwahati, Assam 781011, India",26.13978150,91.67369990,akanksha-hospital,akanksha-hospital@example.com
Gauhati University Hospital,"Guwahati University, 37, National Highway, Gopinath Bordoloi Nagar, Jalukbari, Guwahati, Assam 781014, India",26.15485050,91.66612250,gauhati-university-hospital,gauhati-university-hospital@example.com
Sanjevani Hospital,"Assam Trunk Rd, Maligaon, Guwahati, Assam 781011, India",26.16120190,91.70941170,sanjevani-hospital,sanjevani-hospital@example.com
Aruna Memorial Hospital,"Rajgarh Rd, SATSANG VIHAR, Bhangagarh, Guwahati, Assam 781005, India",26.16611810,91.76895780,aruna-memorial-hospital,aruna-memorial-hospital@example.com
Apollo Hospitals and Clinic (GHY),"5Q97+M5H, Kanchan Rd, South Sarania, Lachit Nagar, Guwahati, Assam 781007, India",26.16919830,91.76299480,apollo-hospitals-and-clinic-ghy,apollo-hospitals-and-clinic-ghy@example.com
Agile Hospitals Private Limited,"Tripura Rd Beltola, Jayanagar Chariali, Khanapara, Guwahati, Assam 781022, India",26.12222340,91.80596350,agile-hospitals-private-limited,agile-hospitals-private-limited@example.com
Apollo Clinic,"Kanchan Rd, opp. Bora Service, near SB Deorah college, South Sarania, Ulubari, Guwahati, Assam 781005, India",26.16921200,91.76298760,apollo-clinic,apollo-clinic@example.com
St. John's Hospital,"GMC Hostel Rd, Christian Basti, Guwahati, Assam 781005, India",26.15623640,91.77565760,st-johns-hospital,st-johns-hospital@example.com
Midland Hospital,"Bye Lane 5, Sree Nagar, Guwahati, Assam 781005, India",26.16179870,91.77986520,midland-hospital,midland-hospital@example.com
Satribari Christian Hospital,"1st, Chatribari Rd, New Market Area, Chatribari, Guwahati, Assam 781008, India",26.17696370,91.74599400,satribari-christian-hospital,satribari-christian-hospital@example.com
Cosmo Cityheart hospital,"12, 781007, Rajgarh By Lane Number 2, Chandmari, Guwahati, Assam 781003, India",26.17249060,91.77140290,cosmo-cityheart-hospital,cosmo-cityheart-hospital@example.com
Vision Hospital,"5PGQ+9W7, Assam Trunk Rd, near Guwahati, opposite Choudhury Cinema, Opp.Choudhary Cinema, Athgaon, Guwahati, Assam 781001, India",26.17591960,91.73980170,vision-hospital,vision-hospital@example.com
Rahman Hospitals Pvt. Ltd,"VIP Rd, opposite to Renault Showroom, Six Mile, Guwahati, Assam 781022, India",26.13518900,91.80940210,rahman-hospitals-pvt-ltd,rahman-hospitals-pvt-ltd@example.com
Central Hospital Maligaon NFR,"5M2V+PXR, PNGB Rd, NV Area, Maligaon, Guwahati, Assam 781011, India",26.15187070,91.69490150,central-hospital-maligaon-nfr,central-hospital-maligaon-nfr@example.com
Kumar Nursing Home - Super Speciality Hospital,"5PCM+QF5, KR Choudhury Road, Kamrup Dist, Kumarpara, Bharalumukh, Guwahati, Assam 781009, India",26.17131680,91.73457180,kumar-nursing-home-super-speciality-hospital,kumar-nursing-home-super-speciality-hospital@example.com
GNRC Good Health Hospital,"Govt Higher Secondary School, GS Rd, near Dispur, near Ayushman Medicos, Dispur, Bormotoria, Guwahati, Assam 781006, India",26.14084210,91.79670760,gnrc-good-health-hospital,gnrc-good-health-hospital@example.com
Parthona Orthopaedic & Super Specialty Hospital,"Parthona Orthopaedic and Super Speciality Hospital, Beharbari, Lalmati, Guwahati, Assam 781029, India",26.11063440,91.77180020,parthona-orthopaedic-super-specialty-hospital,parthona-orthopaedic-super-specialty-hospital@example.com
Appolo Hospital new building,"5Q6J+F9X, Shiva Mandir Path, Sundarpur, Guwahati, Assam 781006, India",26.16122500,91.78098810,appolo-hospital-new-building,appolo-hospital-new-building@example.com
North East Cancer Hospital And Research Institute,"11th Mile Amerigog, Guwahati, Jorabat, Assam 781023, India",26.10045220,91.86920720,north-east-cancer-hospital-and-research-institute,north-east-cancer-hospital-and-research-institute@example.com
Gauhati Medical College,"5Q3C+M2P Narakasur Hilltop, Bhangagarh, Guwahati, Assam 781032, India",26.15421090,91.77007140,gauhati-medical-college,gauhati-medical-college@example.com
St. John Hospital,"5Q4G+F7V, Lalmati, Guwahati, Assam 781029, India",26.15624810,91.77565690,st-john-hospital,st-john-hospital@example.com
Central Nursing Home,"Bus Stop, Beltola Basistha Road Beltola, 3, Samannay Path, Beltola Tiniali, Guwahati, Assam 781028, India",26.13014890,91.79526380,central-nursing-home,central-nursing-home@example.com
H M HOSPITAL & RESEARCH CENTRE PVT LTD,"Haridev Rd, beside Little flower School, Hatigaon, Guwahati, Assam 781038, India",26.13100510,91.78598280,h-m-hospital-research-centre-pvt-ltd,h-m-hospital-research-centre-pvt-ltd@example.com
NIGHTINGALE HOSPITAL,"GMC Hostel Road, Kachari Basti Rd, Ganeshguri, Guwahati, Assam 781005, India",26.15046530,91.78211060,nightingale-hospital,nightingale-hospital@example.com
State Cancer Institute,"Gmch top hill road, INDRAPUR, Guwahati, Assam 781034, India",26.15974830,91.76545950,state-cancer-institute,state-cancer-institute@example.com
Red Cross Hospital,"5QQF+PGX, Navagiri Rd, Purbachal Nagar, Chandmari, Guwahati, Assam 781003, India",26.18936310,91.77387320,red-cross-hospital,red-cross-hospital@example.com
Super Speciality Hospital GMCH,"5Q67+HQQ, Birubari, Guwahati, Assam 781007, India",26.16146510,91.76448380,super-speciality-hospital-gmch,super-speciality-hospital-gmch@example.com
"SARATHI HOSPITAL, NALBARI","Nalbari-Hajo-Guwahati Rd, Khat, Nalbari, Assam 781335, India",26.44099260,91.43584180,sarathi-hospital-nalbari,sarathi-hospital-nalbari@example.com
Dr. Shameem Ahmed - Best Neurosurgeon in Guwahati,"Apollo Hospitals Guwahati, Lotus Tower, GS Rd, Ganeshguri, Guwahati, Assam 781005, India",26.15401810,91.78123270,dr-shameem-ahmed-best-neurosurgeon-in-guwahati,dr-shameem-ahmed-best-neurosurgeon-in-guwahati@example.com
Yashoda Hospitals Medical Information Centre,"GS Rd, GMC Ward Number 44, Ganeshguri, Guwahati, Assam 781006, India",26.14952880,91.78594640,yashoda-hospitals-medical-information-centre,yashoda-hospitals-medical-information-centre@example.com
Mahendra Mohan Choudhury Hospital,"5PPR+664, MG Rd, Fancy Bazaar, Guwahati, Assam 781001, India",26.18550230,91.74058190,mahendra-mohan-choudhury-hospital,mahendra-mohan-choudhury-hospital@example.com
Srishti Hospitals & Research Centre,"Paltan Bazaar, Dibrugarh, Assam 786001, India",27.49306570,94.92792370,srishti-hospitals-research-centre,srishti-hospitals-research-centre@example.com
SWASTHA HOSPITAL,"SWASTHA HOSPITAL A, T. Road, Graham Bazar, Tiniali, Dibrugarh, Assam 786001, India",27.48793200,94.91943250,swastha-hospital,swastha-hospital@example.com
MAGPINS MULTI SPECIALITY HOSPITAL,"AMC Rd, opp. jyotshna cinema hall, Paltan bazar, Dibrugarh, Assam 786005, India",27.49229610,94.93043340,magpins-multi-speciality-hospital,magpins-multi-speciality-hospital@example.com
Srimanta Sankardeva Hospital (SSHRI)- Best Hospital In Dibrugarh.,"FWF6+FMH, Ttiloi Bari, Chowkidingee, Dibrugarh, Assam 786001, India",27.47297260,94.91139100,srimanta-sankardeva-hospital-sshri-best-hospital-in-dibrugarh,srimanta-sankardeva-hospital-sshri-best-hospital-in-dibrugarh@example.com
APEKSHA HOSPITAL | Top Multi-Speciality Hospital in Dibrugarh,"AMC Rd, Jalan Nagar Colony, Paltan Bazar, Dibrugarh, Assam 786005, India",27.49211570,94.93294720,apeksha-hospital-top-multi-speciality-hospital-in-dibrugarh,apeksha-hospital-top-multi-speciality-hospital-in-dibrugarh@example.com
Aditya Superspeciality Hospital,"Satsang Vihar Rd, Jyoti Nagar, Dibrugarh, Assam 786005, India",27.48666650,94.93136500,aditya-superspeciality-hospital,aditya-superspeciality-hospital@example.com
Marwari Arogya Bhawan Hospital,"Arogya Bhawan Road Jyotinagar, P.O, Jalan Nagar Colony, Dibrugarh, Assam 786005, India",27.48941260,94.93025590,marwari-arogya-bhawan-hospital,marwari-arogya-bhawan-hospital@example.com
"Dr. Damani's Nursing Home | Best Multispecialty Hospital in Dibrugarh, Assam | 24/7 Emergency","AMC Rd, near Circuit House, Dibrugarh, Assam 786001, India",27.48984380,94.92302070,dr-damanis-nursing-home-best-multispecialty-hospital-in-dibrugarh-assam-247-emergency,dr-damanis-nursing-home-best-multispecialty-hospital-in-dibrugarh-assam-247-emergency@example.com
Ayush Hospital & Diagnostic Centre,"AMC Rd, Dibrugarh, Assam 786005, India",27.49174350,94.93241240,ayush-hospital-diagnostic-centre,ayush-hospital-diagnostic-centre@example.com
M.F. Hospital & Research Centre,"FVHX+QJ3 Hospital & Research Centre, M.F, Kalibari Rd, West Banshbari, Dibrugarh, Assam 786001, India",27.47949890,94.90001150,mf-hospital-research-centre,mf-hospital-research-centre@example.com
Sanjivani Diagnostics & Hospital ( Multi Super Speciality Hospital),"AMC Rd, Bordoloi Avenue, Dibrugarh, Assam 786005, India",27.49244860,94.93117640,sanjivani-diagnostics-hospital-multi-super-speciality-hospital,sanjivani-diagnostics-hospital-multi-super-speciality-hospital@example.com
Brahmaputra Diagnostics & Hospital Ltd.,"AMC Rd, Jyoti Nagar, Dibrugarh, Assam 786001, India",27.49149790,94.92720220,brahmaputra-diagnostics-hospital-ltd,brahmaputra-diagnostics-hospital-ltd@example.com
J.J. Memorial Hospital or JJM Hospital,"Lokpriya Gopinath Bordoloi Avenue, near Circuit House, Dibrugarh, Assam 786001, India",27.48993750,94.92368750,jj-memorial-hospital-or-jjm-hospital,jj-memorial-hospital-or-jjm-hospital@example.com
G.M. Hospital Private Limited,"FWRM+J5C, Bordoloi Avenue, Jallan Nagar, Dibrugarh, Assam 786001, India",27.49156590,94.93287840,gm-hospital-private-limited,gm-hospital-private-limited@example.com
Aditya Diagnostics & Hospitals,"Assam Medical College Road, Bordoloi Avenue, Paltan Bazaar, Dibrugarh, Assam 786005, India",27.49149300,94.93146690,aditya-diagnostics-hospitals,aditya-diagnostics-hospitals@example.com
H.M.Hospital & Diagnostic Centre,"Paltan Bazar, Opposite Jyotsana Cinema Hall, P.O, Jalan Nagar, Dibrugarh, Assam 786005, India",27.49214500,94.93063190,hmhospital-diagnostic-centre,hmhospital-diagnostic-centre@example.com
UROVISION HOSPITAL,"opp. Satsang Vihar Road, Jyoti Nagar, Dibrugarh, Assam 786001, India",27.48709510,94.92881750,urovision-hospital,urovision-hospital@example.com
Medicare Hospitals,"Doctors lane, LGB avenue, near Circuit House, Dibrugarh, Assam 786001, India",27.48955330,94.92358550,medicare-hospitals,medicare-hospitals@example.com
Assam Medical College,"AMC Rd, Barbari, Dibrugarh, Assam 786002, India",27.48867710,94.94054120,assam-medical-college,assam-medical-college@example.com
Dibrugarh State Hospital (Civil Hospital),"FWQ6+2XR, Dibrugarh, Assam 786001, India",27.48760390,94.91240570,dibrugarh-state-hospital-civil-hospital,dibrugarh-state-hospital-civil-hospital@example.com
Archana Trauma & Orthopaedics Hospital & Research Centre,"Jalan Nagar, Dr, Siba Baruah Path, Jyoti Nagar, Dibrugarh, Assam 786005, India",27.49082670,94.93009710,archana-trauma-orthopaedics-hospital-research-centre,archana-trauma-orthopaedics-hospital-research-centre@example.com
GOOD HEALTH PSYCHIATRY HOSPITAL AND REHABILITATION CENTER,"BORIAGIMOTH KACHARI GOAN MAFIZUDDIN AHMED HAZARIKA ROAD 786003, Dibrugarh, Assam 786003, India",27.46637500,94.93161990,good-health-psychiatry-hospital-and-rehabilitation-center,good-health-psychiatry-hospital-and-rehabilitation-center@example.com
Apollo Clinic,"FWQ8+HX4, Assam Trunk Rd, near Eidgah, Graham Bazar, Dibrugarh, Assam 786001, India",27.48883860,94.91743920,apollo-clinic1,apollo-clinic1@example.com
MGM Hospital,"Bordoloi Avenue,Paltan Bazar,Jalan Nagar, Assam 786005, India",27.49223270,94.93143770,mgm-hospital,mgm-hospital@example.com
V.G. Hospital,"FWCG+7V9, Convoy Road, Boiragimoth, Dibrugarh, Assam 786001, India",27.47051510,94.92722310,vg-hospital,vg-hospital@example.com
Dibrugarh Cancer Centre,"FWMW+7FX, Unnamed Road, Dibrugarh, Assam 786002, India",27.48323170,94.94624220,dibrugarh-cancer-centre,dibrugarh-cancer-centre@example.com
MSK superspeciality clinic,"Assam Medical College Road, near Circuit House, Dibrugarh, Assam 786001, India",27.48966840,94.92205410,msk-superspeciality-clinic,msk-superspeciality-clinic@example.com
Dibrugarh Medicity,"Circuit House Road, AMC Rd, Dibrugarh, Assam 786001, India",27.49080160,94.92497680,dibrugarh-medicity,dibrugarh-medicity@example.com
Astha Hospital,"Assam Trunk Rd, Graham Bazar, Dibrugarh, Assam 786001, India",27.48924570,94.91617050,astha-hospital,astha-hospital@example.com
Drishti Netralaya,"Eye Care Home, Drishti Netralaya, Rly Gate, opp. Gymkhana Club, Amolapatty, Dibrugarh, Assam 786001, India",27.47792260,94.89554920,drishti-netralaya,drishti-netralaya@example.com
Aziz Diagnostic & Hospital,"Circuit House Road, opposite Polo Ground, Dibrugarh, Assam 786001, India",27.48995630,94.92292880,aziz-diagnostic-hospital,aziz-diagnostic-hospital@example.com
pooja hospital and diagnostic center,"Assam Trunk Rd, Graham Bazar, Dibrugarh, Assam 786001, India",27.48780220,94.91924570,pooja-hospital-and-diagnostic-center,pooja-hospital-and-diagnostic-center@example.com
Dr. Dipok Kumar Neog,"Brahmaputra Diagnostics Hospital Ltd, AMC Rd, Jyoti Nagar, Dibrugarh, Assam 786001, India",27.49166940,94.92723300,dr-dipok-kumar-neog,dr-dipok-kumar-neog@example.com
ARPAN CLINIC AND DIAGNOSTIC CENTRE,"Ground Floor, PRP Enclave, Jalannagar, near G.M. Hospital, Dibrugarh, Assam 786005, India",27.49048960,94.93219650,arpan-clinic-and-diagnostic-centre,arpan-clinic-and-diagnostic-centre@example.com
Dibrugarh medical medicine ward& opd,"FWQR+74R, Barbari, Dibrugarh, Assam 786002, India",27.48823660,94.94025580,dibrugarh-medical-medicine-ward-opd,dibrugarh-medical-medicine-ward-opd@example.com
Tata Hospital And Research Centre,"F5C6+MF6, Khailabari Bagan Gaon, Assam 786184, India",27.47166160,95.16114080,tata-hospital-and-research-centre,tata-hospital-and-research-centre@example.com
JJM HOSPITALS,"LGB Avenue, AMC Rd, near Circuit House, Jyoti Nagar, Dibrugarh, Assam 786001, India",27.49212510,94.92799490,jjm-hospitals,jjm-hospitals@example.com
E.S.I.S Dispensary Dibrugarh,"P.O, C.R. Building, F. Lane, West Milan Nagar, Milan Nagar, Dibrugarh, Assam 786003, India",27.46144040,94.91249070,esis-dispensary-dibrugarh,esis-dispensary-dibrugarh@example.com
DU Health Centre,"CVWX+QFC, Dibrugarh University, Assam 786004, India",27.44693400,94.89863630,du-health-centre,du-health-centre@example.com
Assam Medical College & Hospital campus,"FWPW+G39 AMCH campus, Lane-K, Dibrugarh, Assam 786002, India",27.48962730,94.94300310,assam-medical-college-hospital-campus,assam-medical-college-hospital-campus@example.com
Global Fertility Centre,"37, Assam Trunk Rd, Graham Bazar, Dibrugarh, Assam 786001, India",27.48917610,94.91754390,global-fertility-centre,global-fertility-centre@example.com
Jyotish Memorial Hospital,"FWMJ+5G8, Assam Trunk Rd, Dibrugarh, Assam 786005, India",27.48291020,94.93131980,jyotish-memorial-hospital,jyotish-memorial-hospital@example.com
MedDib Health Care,"Circuit House Road, Dibrugarh, Assam 786001, India",27.49087280,94.92509920,meddib-health-care,meddib-health-care@example.com
Care & Cure Clinic and Diagnostics & ENT Clinic,"Cole Rd, Dibrugarh, Assam 786001, India",27.47959160,94.90225530,care-cure-clinic-and-diagnostics-ent-clinic,care-cure-clinic-and-diagnostics-ent-clinic@example.com
"Apollo ENT Clinic, Dibrugarh","Graham Bazar, Dibrugarh, Assam 786001, India",27.48918420,94.91723010,apollo-ent-clinic-dibrugarh,apollo-ent-clinic-dibrugarh@example.com
Mrityunjay HealthCare,"A4, Swarna Complex, AMC Rd, opp. Namghar Road, Jyoti Nagar, Paltanbazar, Dibrugarh, Assam 786005, India",27.49230530,94.92878340,mrityunjay-healthcare,mrityunjay-healthcare@example.com
Department of Anaesthesiology,"FWQR+CJ9, Barbari, Dibrugarh, Assam 786002, India",27.48853130,94.94159420,department-of-anaesthesiology,department-of-anaesthesiology@example.com
"Super Speciality Block, AMC","Super Specialty Block, opposite Blood Bank Assam Medical College, Dibrugarh, Assam 786002, India",27.48853400,94.94247670,super-speciality-block-amc,super-speciality-block-amc@example.com
"ECHS Polyclinic, Dibrugarh","FW77+9JX, Mancotta Rd, Railway Colony, Amolapatty, Dibrugarh, Assam 786003, India",27.46347640,94.91409390,echs-polyclinic-dibrugarh,echs-polyclinic-dibrugarh@example.com
Siu-Ka-Pha Multispeciality Hospital,"Rajabari, Demow, Assam 785672, India",27.06601770,94.69703310,siu-ka-pha-multispeciality-hospital,siu-ka-pha-multispeciality-hospital@example.com
CGHS Wellness Centre Dibrugarh (Allopathic),"FVCV+892, Ttiloi Bari, Chowkidingee, Dibrugarh, Assam 786001, India",27.47075080,94.89337950,cghs-wellness-centre-dibrugarh-allopathic,cghs-wellness-centre-dibrugarh-allopathic@example.com
Lion K K Saharia Eye Hospital,"Assam Trunk Rd, Dibrugarh, Assam 786001, India",27.48448790,94.90480890,lion-k-k-saharia-eye-hospital,lion-k-k-saharia-eye-hospital@example.com
S.D Sahewalla Memorial School of Nursing,"Aditya Diagnostics and Hospital Campus Bordoloi Avenue, Assam 786005, India",27.49123110,94.93386440,sd-sahewalla-memorial-school-of-nursing,sd-sahewalla-memorial-school-of-nursing@example.com
Dibrugarh Cancer Centre,"3rd Floor, V.K Trade Centre, GS Rd, opp. DownTown Hospital, GMC Ward Number 44, Ganeshguri, Guwahati, Assam 781022, India",26.14937460,91.78595740,dibrugarh-cancer-centre1,dibrugarh-cancer-centre1@example.com
SRL Diagnostics,"FWRJ+V5C, MAGPINS TOWER, opp. JYOTSHNA CINEMA HALL, Paltan Bazaar, Dibrugarh, Assam 786005, India",27.49217840,94.93039140,srl-diagnostics,srl-diagnostics@example.com
Maheshwari Diagnostic Center,"Mancotta Rd, Ttiloi Bari, Dibrugarh, Assam 786003, India",27.47413790,94.91042480,maheshwari-diagnostic-center,maheshwari-diagnostic-center@example.com
Dr. Aritra Pradhan,"Srishti Hospital and Research Centre, Graham Bazar, Paltan Bazaar, Dibrugarh, Assam 786001, India",27.48690140,94.91415340,dr-aritra-pradhan,dr-aritra-pradhan@example.com
Arpan Clinic,"GROUND FLOOR, PRP ENCLAVE, JALANNAGAR, SIDE ROAD, near G.M. Hospital, Dibrugarh, Assam 786005, India",27.49052110,94.93231050,arpan-clinic,arpan-clinic@example.com
Aarogya Uddyan,"FWRH+2XM, Jyoti Nagar, Dibrugarh, Assam 786005, India",27.49009200,94.92993170,aarogya-uddyan,aarogya-uddyan@example.com
Srishti Diagnostics,"Srishti Hospital Research Centre, Paltan Bazaar, AMC Rd, Paltan Bazaar, Dibrugarh, Assam 786001, India",27.49306840,94.92791230,srishti-diagnostics,srishti-diagnostics@example.com
Jorhat Medical College & Hospital,"P5VW+22H, Kushal Konwar Path, Kushal Nagar, Barbheta, Jorhat, Assam 785001, India",26.74257380,94.19510870,jorhat-medical-college-hospital,jorhat-medical-college-hospital@example.com
Sanjivani Hospital,"A.T., Choladhara Rd, Jorhat, Assam 785001, India",26.75758330,94.20182670,sanjivani-hospital,sanjivani-hospital@example.com
Satyam Hospital And Research Centre,"Gar-Ali, Jorhat, Assam 785001, India",26.75880170,94.21593400,satyam-hospital-and-research-centre,satyam-hospital-and-research-centre@example.com
Jorhat Christian Medical Centre,"Barbheta, Jorhat, Assam 785001, India",26.73831250,94.20068750,jorhat-christian-medical-centre,jorhat-christian-medical-centre@example.com
Mission Hospital,"P6Q2+CFV, Barbheta, Jorhat, Assam 785001, India",26.73861510,94.20115840,mission-hospital,mission-hospital@example.com
Niramoy Hospital and Research Centre,"Jail Rd, Kushal Nagar, Barbheta, Jorhat, Assam 785001, India",26.74492650,94.20096300,niramoy-hospital-and-research-centre,niramoy-hospital-and-research-centre@example.com
5 Air Force Hospital Jorhat,"P59G+5P8, Raraiyah, Nowsolia Gaon, Jorhat, Assam 785005, India",26.71790810,94.17681900,5-air-force-hospital-jorhat,5-air-force-hospital-jorhat@example.com
A. G. Nursing Home,"Q53Q+7R3, Assam Trunk Rd, Seuj Nagar, Sonari Gaon, Tarajan, Jorhat, Bhatemora Gaon, Assam 785001, India",26.75314260,94.18959030,a-g-nursing-home,a-g-nursing-home@example.com
Arunudoy Hospital & Research Centre,"Milan Nagar, 785001, Macharhaat, Jorhat, Assam 785001, India",26.77126520,94.20599130,arunudoy-hospital-research-centre,arunudoy-hospital-research-centre@example.com
Jorhat Lions Eye Hospital,"Q626+C66, Atilagaon, Jorhat, Assam 785001, India",26.75104120,94.21051030,jorhat-lions-eye-hospital,jorhat-lions-eye-hospital@example.com
Chandraprabha Eye Hospital,"K.K Handique Path, Assam 785001, India",26.76219660,94.20796670,chandraprabha-eye-hospital,chandraprabha-eye-hospital@example.com
City Orthopaedic Hospital & Research Centre,"JB Rd, Macharhaat, Jorhat, Dulia Gaon, Assam 785001, India",26.76684470,94.20701800,city-orthopaedic-hospital-research-centre,city-orthopaedic-hospital-research-centre@example.com
Imsr Hospital,"Krishna Nagar, Bapuji Nagar, Jorhat, Sensowa Gaon, Assam 785001, India",26.74904300,94.17705470,imsr-hospital,imsr-hospital@example.com
Jorhat Cancer Centre ACCF,"Kushal Nagar, Tarajan, Jorhat, Assam 785001, India",26.74298080,94.19794760,jorhat-cancer-centre-accf,jorhat-cancer-centre-accf@example.com
Barua Surgical Centre,"P5MW+C7Q, Kamar Bandha Rd, Barbheta, Jorhat, Assam 785001, India",26.73359010,94.19572330,barua-surgical-centre,barua-surgical-centre@example.com
Jorhat Medical College OPD Complex,"P5RW+PV9, Kushal Nagar, Tarajan, Jorhat, Assam 785001, India",26.74178690,94.19723780,jorhat-medical-college-opd-complex,jorhat-medical-college-opd-complex@example.com
BARUA SURGICAL CENTRE ( A UNIT OF BRC HEALTHCARE ),"BORBHETA, Jail Rd, Jorhat, Assam 785004, India",26.72717730,94.19455660,barua-surgical-centre-a-unit-of-brc-healthcare,barua-surgical-centre-a-unit-of-brc-healthcare@example.com
KG Nursing Home,"P6X2+4RC, Kamar Bandha Rd, Kushal Nagar, Tarajan, Jorhat, Assam 785001, India",26.74782000,94.20200500,kg-nursing-home,kg-nursing-home@example.com
pain fracture Clinic And Research Centre,"Q674+PPH, Malow Ali, Jorhat, Dulia Gaon, Assam 785001, India",26.76431540,94.20686130,pain-fracture-clinic-and-research-centre,pain-fracture-clinic-and-research-centre@example.com
Dr.J.K. Saikia Homeopathic Medical College & Hospital,"Club Rd, Chandan Nagar, Jorhat, Assam 785008, India",26.73175500,94.22095410,drjk-saikia-homeopathic-medical-college-hospital,drjk-saikia-homeopathic-medical-college-hospital@example.com
Sanjivani Hospital,"Sanjivani Hospital, Assam Trunk Rd, Tarajan, Jorhat, Assam 785001, India",26.75738600,94.20137930,sanjivani-hospital1,sanjivani-hospital1@example.com
Malpani Nursing Home,"Q668+W98, Raja Maidam Rd, Rajamaidam, New Colony, Jorhat, Dulia Gaon, Assam 785001, India",26.76229870,94.21596490,malpani-nursing-home,malpani-nursing-home@example.com
Sonjebone hospatil,"Q666+6PM, Assam Trunk Rd, Babupatty, Jorhat, Dulia Gaon, Assam 785001, India",26.76058130,94.21179080,sonjebone-hospatil,sonjebone-hospatil@example.com
"Jeevan Jyoti Institute of Medical Sciences - Best hospital in Silchar, Assam (Fast & Reliable)","Meherpur, Birbal Bazar, Silchar, Ambicapur Pt VI, Assam 788118, India",24.78801460,92.79334200,jeevan-jyoti-institute-of-medical-sciences-best-hospital-in-silchar-assam-fast-reliable,jeevan-jyoti-institute-of-medical-sciences-best-hospital-in-silchar-assam-fast-reliable@example.com
Gracewell Hospital,"Meherpur, Birbal Bazar, Silchar, Assam 788015, India",24.78284500,92.79592750,gracewell-hospital,gracewell-hospital@example.com
Civil Hospital,"Hospital Rd, Ambicapatty, Silchar, Kanakpur Part-II, Assam 788001, India",24.81820470,92.79872250,civil-hospital,civil-hospital@example.com
RJ MEDICITY A Multi-speciality Hospital,"QRR5+4GG, Kanakpur, Silchar, Assam 788015, India",24.79046050,92.80882500,rj-medicity-a-multi-speciality-hospital,rj-medicity-a-multi-speciality-hospital@example.com
Valley Hospital (Powered by Fiftyco Labs),"Valley Hospital and Research Centre, SMCH Road, Meherpur, Birbal Bazar, Silchar, Assam 788015, India",24.78429330,92.79582960,valley-hospital-powered-by-fiftyco-labs,valley-hospital-powered-by-fiftyco-labs@example.com
Apollo Clinic Silchar,"15, opposite UCO Bank, Meherpur, Birbal Bazar, Silchar, Assam 788015, India",24.78922490,92.79376680,apollo-clinic-silchar,apollo-clinic-silchar@example.com
Cachar Cancer Hospital and Research Centre,"Meherpur, Birbal Bazar, Silchar, Assam 788015, India",24.78902170,92.79807270,cachar-cancer-hospital-and-research-centre,cachar-cancer-hospital-and-research-centre@example.com
South City Hospital,"College, Meherpur Road, near Polytechnic Road, Meherpur, Birbal Bazar, Silchar, Assam 788118, India",24.78557600,92.79557320,south-city-hospital,south-city-hospital@example.com
Mediland Hospital and Research centre,"Nursing Home Road, adjacent to Itkhola Play Ground, Itkhola, Tarapur, Silchar, Assam 788002, India",24.83682820,92.80174630,mediland-hospital-and-research-centre,mediland-hospital-and-research-centre@example.com
Green Heals Hospital Pvt Ltd,"Near Silchar Polytechnic Beltala, Meherpur, Silchar, Assam 788015, India",24.78751960,92.79573990,green-heals-hospital-pvt-ltd,green-heals-hospital-pvt-ltd@example.com
Arogya Hospital In Silchar,"Meherpur Rd, opposite ASEB Substation, near Green Park, Durgapally, Birbal Bazar, Silchar, Assam 788015, India",24.78093060,92.79560110,arogya-hospital-in-silchar,arogya-hospital-in-silchar@example.com
Nightingale Hospital,"QQVV+549, Meherpur Rd, Meherpur, Birbal Bazar, Silchar, Assam 788012, India",24.79292400,92.79284500,nightingale-hospital1,nightingale-hospital1@example.com
MEDINOVA HOSPITAL,"Meherpur, Birbal Bazar, Silchar, Ambicapur Pt VI, Assam 788006, India",24.79219590,92.79131450,medinova-hospital,medinova-hospital@example.com
Mawsumi Hospital,"16, Itkhola Rd, Tarapur, Silchar, Assam 788001, India",24.83199280,92.80010790,mawsumi-hospital,mawsumi-hospital@example.com
R E HOSPITAL,"Near SMCH, Hailakandi Rd, Birbal Bazar, Silchar, Assam 788114, India",24.77863380,92.79342200,r-e-hospital,r-e-hospital@example.com
Lions Eye Hospital,"RQHV+J68, NH 53, Tarapur, Silchar, Assam 788003, India",24.82904270,92.79306430,lions-eye-hospital,lions-eye-hospital@example.com
Life Line Hospital,"NS Ave, Das Colony, Ambicapatty, Silchar, Kanakpur Part-II, Assam 788005, India",24.80782320,92.79531720,life-line-hospital,life-line-hospital@example.com
Vivekananda Speciality. Hospital & Research Centre,"RQ4V+7CV, Chittaranjan Avenue, National Highway Road, Silchar, Assam 788005, India",24.80572750,92.79354710,vivekananda-speciality-hospital-research-centre,vivekananda-speciality-hospital-research-centre@example.com
"City Health Care, Silchar","Opposite Capital Travels, Club Rd, near Life Insurance Corporation of India Office, Tarapur, Silchar, Assam 788001, India",24.83149040,92.80036700,city-health-care-silchar,city-health-care-silchar@example.com
"Narishikkha Hospital, Park Road","RQGW+6FQ, Park Rd, Tarapur, Silchar, Assam 788001, India",24.82558430,92.79624770,narishikkha-hospital-park-road,narishikkha-hospital-park-road@example.com
Silchar Medical College and Hospital,"Road, beside Indian Post, Ghungoor, Masimpur, Silchar, Uttar Krishnapur Pt III, Assam 788014, India",24.77580290,92.79500770,silchar-medical-college-and-hospital,silchar-medical-college-and-hospital@example.com
"ERC Eye Care Hospital, Silchar","RRH2+W4F, Nursing Home Road, near Elora, Tarapur, Silchar, Assam 788001, India",24.82981250,92.80031250,erc-eye-care-hospital-silchar,erc-eye-care-hospital-silchar@example.com
BLUE HILLS HOSPITAL AND RESEARCH CENTRE,"NH -27, Lathigram, Udarbond, Silchar, Assam 788030, India",24.88420570,92.85893050,blue-hills-hospital-and-research-centre,blue-hills-hospital-and-research-centre@example.com
Apollo Diagnostics Lab Silchar,"opposite tata surana motors, Kanakpur Part-II, Assam 788005, India",24.80290880,92.79325520,apollo-diagnostics-lab-silchar,apollo-diagnostics-lab-silchar@example.com
S N Orthopaedic Hospital.,"Naga Tilla Point, Sonai Rd, Kanakpur, Silchar, Assam 788006, India",24.79191860,92.80738520,s-n-orthopaedic-hospital,s-n-orthopaedic-hospital@example.com
Kay Cee Clinic & Nursing Home,"Ward No. 6, Tulapatty Road, Near, Janiganj Rd, Silchar, Assam 788001, India",24.82587200,92.80173420,kay-cee-clinic-nursing-home,kay-cee-clinic-nursing-home@example.com
Ellora Hospital,"silchar 788005, Silchar, Assam 788003, India",24.83327080,92.77890540,ellora-hospital,ellora-hospital@example.com
MEDIKARA HEALTHCARE,"ISKCON Mandir Road, Ambicapatty, Silchar, Assam 788004, India",24.81962730,92.79648490,medikara-healthcare,medikara-healthcare@example.com
GOODHEALTH CENTRE,"Itkhola Rd, Tarapur, Silchar, Assam 788001, India",24.83201690,92.80005460,goodhealth-centre,goodhealth-centre@example.com
Sunlit Hospital,"RQ8J+G4W, CR Ave, Tarapur, Silchar, Assam 788026, India",24.81635840,92.78032490,sunlit-hospital,sunlit-hospital@example.com
Red Cross Children's Hospital,"RQGW+J4W, Park Rd, Tarapur, Silchar, Assam 788007, India",24.82660880,92.79532300,red-cross-childrens-hospital,red-cross-childrens-hospital@example.com
SUDIPTA NURSING HOME,"RQ5V+9PC, Tarapur, Kanakpur Part-II, Assam 788005, India",24.80844410,92.79426630,sudipta-nursing-home,sudipta-nursing-home@example.com
The ENT Clinic Silchar,"Lochan Bairagi Rd, Kanakpur, Silchar, Kanakpur Part-II, Assam 788001, India",24.81630270,92.80070810,the-ent-clinic-silchar,the-ent-clinic-silchar@example.com
Quickobook,"Moulabi Rd, Ambicapatty, Silchar, Assam 788004, India",24.81814320,92.79497710,quickobook,quickobook@example.com
CITY METERNITY NURSING HOME,"Rangirkhari Point, opp. Indasand Bank of India, Ambicapatty, Silchar, Kanakpur Part-II, Assam 788005, India",24.81244970,92.79720380,city-meternity-nursing-home,city-meternity-nursing-home@example.com
Green View Health Care,"NS Ave, opposite ICICI Bank, Kanakpur, Silchar, Kanakpur Part-II, Assam 788005, India",24.80719100,92.79554700,green-view-health-care,green-view-health-care@example.com
Choudhury Eye Hospital And Research Centre,"Shyamaprasad Road, Shillong Patty, Nazirpatty, Ambicapatty, Silchar, Assam 788001, India",24.82346310,92.79767170,choudhury-eye-hospital-and-research-centre,choudhury-eye-hospital-and-research-centre@example.com
Apollo Diagnostics Ambicapatty Centre,"Ambicapatty, chowrangi, near SBI atm. Landmark-iskon mandir, Silchar, Assam 788004, India",24.81960870,92.79521580,apollo-diagnostics-ambicapatty-centre,apollo-diagnostics-ambicapatty-centre@example.com
Apollo Hospitals Information Centre,"Hailakandi Rd, near Apollo Diagnostics, Silchar, Kanakpur Part-II, Assam 788005, India",24.80297770,92.79337230,apollo-hospitals-information-centre,apollo-hospitals-information-centre@example.com
Dr. Shipani Clinic,"RQFX+GQP, Nazirpatty, Tarapur, Silchar, Assam 788001, India",24.82384520,92.79944090,dr-shipani-clinic,dr-shipani-clinic@example.com
Silchar Health Care,"Hailakandi Rd, opposite impulse diagnostic centre, Meherpur, Birbal Bazar, Silchar, Assam 788015, India",24.78855000,92.79464300,silchar-health-care,silchar-health-care@example.com
SHATAYU HEALTH PLUS,"Sahid Sunil Sarkar Ln, Ambicapatty, Silchar, Kanakpur Part-II, Assam 788005, India",24.81671170,92.79577980,shatayu-health-plus,shatayu-health-plus@example.com
"National Institute Of Medical Science, Silchar","1st Floor, Vijoyshree Complex, Lumding - Silchar Rd, Silchar, Assam 788001, India",24.83201470,92.80017220,national-institute-of-medical-science-silchar,national-institute-of-medical-science-silchar@example.com
Burrows Memorial Christian Hospital (BMCH) Alipur,"Burrows Memorial Christian Hospital, Monipur Pt II, Assam 788101, India",24.82552890,92.95021230,burrows-memorial-christian-hospital-bmch-alipur,burrows-memorial-christian-hospital-bmch-alipur@example.com
S R METRO,"NS Ave, next to BATA, Rangirkhari, Point, Silchar, Kanakpur Part-II, Assam 788005, India",24.81207660,92.79716470,s-r-metro,s-r-metro@example.com
Urban Primary Health Centre (Urban PHC),"Tarapur, Silchar, Assam 788003, India",24.83148100,92.79405640,urban-primary-health-centre-urban-phc,urban-primary-health-centre-urban-phc@example.com
Apollo Diagnostics Rongpur Centre,"House no-71, VIP road, opposite m/s Rumi Medicos, Rongpur, Silchar, Assam 788009, India",24.82982770,92.80807050,apollo-diagnostics-rongpur-centre,apollo-diagnostics-rongpur-centre@example.com
Niramoy Health Care,"SADARGHAT ROAD, Near Govt' Boys HS School-1,, Janiganj Rd, Tarapur, Silchar, Assam 788001, India",24.82792490,92.80347440,niramoy-health-care,niramoy-health-care@example.com
Suruchi Enterprise (ayurvedic doctors chamber ),"No. 4, Lane, 1st Link Rd, Birbal Bazar, Silchar, Kanakpur Part-II, Assam 788005, India",24.80398540,92.79736460,suruchi-enterprise-ayurvedic-doctors-chamber,suruchi-enterprise-ayurvedic-doctors-chamber@example.com
nursing home,"RRG2+7C9, Tula patty, Nazirpatty, Tarapur, Silchar, Assam 788001, India",24.82566300,92.80110080,nursing-home,nursing-home@example.com
Dr Azmal Hussain Mazumder,"Old Lakhipur Rd, Bilpar, Kanakpur, Silchar, Assam 788001, India",24.82050360,92.80449990,dr-azmal-hussain-mazumder,dr-azmal-hussain-mazumder@example.com
Labac Hospital,"R2V7+3RM, Unnamed Road, Laboc Grant, Assam 788102, India",24.84272150,93.01454410,labac-hospital,labac-hospital@example.com
Dr. Aparajeet Kar,"Green Park, Meherpur Rd, Durgapally, Birbal Bazar, Silchar, Assam 788015, India",24.78169310,92.79688930,dr-aparajeet-kar,dr-aparajeet-kar@example.com
Mediclinic Silchar,"Trunk Road, College, near Cachar, Silchar, Assam 788001, India",24.83170430,92.79976730,mediclinic-silchar,mediclinic-silchar@example.com
Cure Diagnostic Centre,"Meherpur Rd, opposite Green Park, SMCH ROAD, Silchar, Assam 788015, India",24.78233200,92.79577890,cure-diagnostic-centre,cure-diagnostic-centre@example.com
Qualicare Polyclinic,"adjacent Vivekananda Cooperative, beside NEINS, Meherpur, Birbal Bazar, Silchar, Assam 788015, India",24.79780850,92.79192630,qualicare-polyclinic,qualicare-polyclinic@example.com
Silchar Heart Care,"QQQV+PM2, Hailakandi Rd, Meherpur, Birbal Bazar, Silchar, Assam 788015, India",24.78928080,92.79420680,silchar-heart-care,silchar-heart-care@example.com
RP MEDICOS,"Khatal Rd, opposite Amar agency, Silchar, Assam 788015, India",24.80198910,92.78962850,rp-medicos,rp-medicos@example.com
Dorika Hospital,"NH715, Majgaon, Tezpur, Assam 784154, India",26.65217010,92.79051140,dorika-hospital,dorika-hospital@example.com
TIMeS Hospital,"Old N.T. Road, Deurigaon Opposite NRL Petrol Pump, Mission Chariali, Ketekibari, Tezpur, Assam 784001, India",26.65060170,92.77439190,times-hospital,times-hospital@example.com
Nemcare Hospital Tezpur Pvt. Ltd.,"Mahabhairab, Tezpur, Assam 784001, India",26.62215020,92.79494700,nemcare-hospital-tezpur-pvt-ltd,nemcare-hospital-tezpur-pvt-ltd@example.com
Baptist Christian Hospital,"Mission Chariali, Ketekibari, Tezpur, Assam 784001, India",26.65263120,92.77266260,baptist-christian-hospital,baptist-christian-hospital@example.com
Tezpur Medical College and Hospital,"Medical College, NH15, Tumuki, Tezpur, Assam 784153, India",26.68125020,92.65256580,tezpur-medical-college-and-hospital,tezpur-medical-college-and-hospital@example.com
B. K. Memorial Hospital,"Natunpara Rd, Mahabhairab, Tezpur, Assam 784001, India",26.62521990,92.80042660,b-k-memorial-hospital,b-k-memorial-hospital@example.com
Kanaklata Civil Hospital TEZPUR,"Kanaklata Civil hospital complex, Tezpur, Assam 784001, India",26.62885340,92.79692920,kanaklata-civil-hospital-tezpur,kanaklata-civil-hospital-tezpur@example.com
155 base hospital,"MQ4P+R35 Army Base Hospital, Patiachubri, Tezpur, Kumar Gaon, Assam 784501, India",26.65646950,92.78830340,155-base-hospital,155-base-hospital@example.com
EMM HOSPITAL & RESEARCH CENTER,"JQCW+WCF, Ranu Singh Road, Mahatma Gandhi Rd, behind Anwar Hall, Mahabhairab, Tezpur, Assam 784001, India",26.62212010,92.79540370,emm-hospital-research-center,emm-hospital-research-center@example.com
Ananta Memorial Hospital,"Murha Teteli, Bhairabpad, Tezpur, Assam 784001, India",26.63525810,92.78409640,ananta-memorial-hospital,ananta-memorial-hospital@example.com
Gogoi Nursing Home Complex,"Nikamul, NH715, Majgaon, Tezpur, Assam 784154, India",26.65221820,92.78957030,gogoi-nursing-home-complex,gogoi-nursing-home-complex@example.com
Orthocare Hospital Tezpur,"MG Enclave, Nikamul Chariali, Lokhra, Paruwa Chariali, Tezpur, Assam 784001, India",26.65138980,92.79615930,orthocare-hospital-tezpur,orthocare-hospital-tezpur@example.com
B-J Hospital,"Mission Chariali, Ketekibari, Tezpur, Kumar Gaon, Assam 784001, India",26.65947220,92.77139010,b-j-hospital,b-j-hospital@example.com
EMM Hospital,"JQCW+R5R, NB Rd, Mahabhairab, Tezpur, Assam 784001, India",26.62176450,92.79560040,emm-hospital,emm-hospital@example.com
Sukhada Hospital,"JQXR+Q8J, Majgaon, Tezpur, Assam 784001, India",26.64946120,92.79075500,sukhada-hospital,sukhada-hospital@example.com
NARAYANA HEALTH CARE SUPER SPECIALITY HOSPITAL,"Nirai ati road, Bihaguri, Tezpur, Assam 784010, India",26.68444920,92.65614830,narayana-health-care-super-speciality-hospital,narayana-health-care-super-speciality-hospital@example.com
"Tezpur Eye Hospital | Best Eye Hospital in Tezpur, Assam","off NH 37A, Mission Chariali, Ketekibari, Tezpur, Assam 784001, India",26.65228100,92.78385400,tezpur-eye-hospital-best-eye-hospital-in-tezpur-assam,tezpur-eye-hospital-best-eye-hospital-in-tezpur-assam@example.com
LGB Regional Institute of Mental Hospital,"JRH6+J77, Ex Police Line Rd, Mahabhairab, Tezpur, Assam 784001, India",26.62904320,92.81067910,lgb-regional-institute-of-mental-hospital,lgb-regional-institute-of-mental-hospital@example.com
Dr Mukul Goswami (ENT Specialists),"TIMeS Hospital, Ketekibari, Tezpur, Assam 784001, India",26.65046870,92.77435410,dr-mukul-goswami-ent-specialists,dr-mukul-goswami-ent-specialists@example.com
"ERC Eye Care Hub, Tezpur","MQ4F+4GQ, Mission Chariali, Ketekibari, Tezpur, Assam 784501, India",26.65495260,92.77313390,erc-eye-care-hub-tezpur,erc-eye-care-hub-tezpur@example.com
Precious fertility and IVF centre- branch of EMM HOSPITAL AND RESEARCH CENTRE,"Ranu Singh Road, behind Anwar Hall, Mahabhairab, Tezpur, Assam 784001, India",26.62191560,92.79583030,precious-fertility-and-ivf-centre-branch-of-emm-hospital-and-research-centre,precious-fertility-and-ivf-centre-branch-of-emm-hospital-and-research-centre@example.com
LGB Regional Institute of Mental Health,"JRG6+V93, Kalibari Main Road, Mahabhairab, Tezpur, Assam 784001, India",26.62697510,92.80973230,lgb-regional-institute-of-mental-health,lgb-regional-institute-of-mental-health@example.com
C.L.M. Chest Hospital Tezpur,"JQCG+2RF, Unnamed Road, Bhairabpad, Tezpur, Assam 784001, India",26.62005890,92.77703600,clm-chest-hospital-tezpur,clm-chest-hospital-tezpur@example.com
Skylark Hospital,"JQJW+4XF, Civil Hospital Road, Mahabhairab, Tezpur, Assam 784001, India",26.63031920,92.79739590,skylark-hospital,skylark-hospital@example.com
Shankara Cancer & Research Institute,"MQ2R+V6, Majgaon, Tezpur, Assam 784154, India",26.65218750,92.79056250,shankara-cancer-research-institute,shankara-cancer-research-institute@example.com
"Rupam Das Chamber,Tezpur","Mahabhairab, Tezpur, Assam 784001, India",26.62673080,92.79767960,rupam-das-chambertezpur,rupam-das-chambertezpur@example.com
Dr. Satyajit Borah,"behind Rupam Petroleum, Basantipur, Tezpur, Assam 784001, India",26.63917210,92.78336280,dr-satyajit-borah,dr-satyajit-borah@example.com
Dr Kishore Chakravarty,"JQHQ+8VH, Kamarchuburi, Tezpur, Assam 784001, India",26.62831490,92.78974460,dr-kishore-chakravarty,dr-kishore-chakravarty@example.com
Army Base Hospital,"MQ4P+5W4, Patiachubri, Tezpur, Assam 784501, India",26.65539690,92.78731760,army-base-hospital,army-base-hospital@example.com
Nagaon DBM Hospital & Research Institute,"Medical Road, Haibargaon, Daccapatty, Nagaon, Assam 782001, India",26.34482310,92.68841960,nagaon-dbm-hospital-research-institute,nagaon-dbm-hospital-research-institute@example.com
Dew Care Hospital & Research Centre,"Dhing Rd, Haibargaon, Nagaon, Kawaimari, Assam 782003, India",26.35641210,92.66435530,dew-care-hospital-research-centre,dew-care-hospital-research-centre@example.com
G. D Hospital & Research Centre.,"8MXC+9R8, Haibargaon, Khutikatia, Nagaon, Assam 782002, India",26.34805080,92.67255220,g-d-hospital-research-centre,g-d-hospital-research-centre@example.com
NIDAN HOSPITAL NAGAON ( নিদান হস্পিতাল নগাঁও ),"A. T. Road, near All India Radio center, Khutikatia, Sensuwa, Assam 782002, India",26.33443460,92.66223860,nidan-hospital-nagaon,nidan-hospital-nagaon@example.com
Trinayan Health Care And Research Centre,"ADP Rd, Christianpatty, Palashani, Nagaon, Assam 782001, India",26.35044470,92.68874590,trinayan-health-care-and-research-centre,trinayan-health-care-and-research-centre@example.com
"Metro Hospital & Research Center, Nagaon","Simaluguri, Assam 782002, India",26.35842610,92.65029560,metro-hospital-research-center-nagaon,metro-hospital-research-center-nagaon@example.com
"Bhogeswari Phukanani Civil Hospital, Nagaon","bp civil hospital, Haibargaon, Daccapatty, Nagaon, Assam 782001, India",26.34491520,92.68945570,bhogeswari-phukanani-civil-hospital-nagaon,bhogeswari-phukanani-civil-hospital-nagaon@example.com
ADITYA HOSPITAL(আদিত্য হস্পিতাল),"Lawkhuwa Road, Diphalu, Nagaon, Assam 782003, India",26.36617850,92.70461550,aditya-hospital,aditya-hospital@example.com
Mercy Hospital,"Islampatty, Haibargaon, Nagaon, Assam 782002, India",26.34745950,92.66355820,mercy-hospital,mercy-hospital@example.com
Health planet hospital ( A multispeciality & superspeciality Hospital),"Dhing gate, Dhing Rd, near flyover, near Dhing Gate Fly Over, Haibargaon, Nagaon, Assam 782002, India",26.35438840,92.66872260,health-planet-hospital-a-multispeciality-superspeciality-hospital,health-planet-hospital-a-multispeciality-superspeciality-hospital@example.com
Nagaon Nursing & Maternity Home,"No 2, Mullapatty, Haibargaon, Nagaon, Assam 782002, India",26.34894660,92.66774330,nagaon-nursing-maternity-home,nagaon-nursing-maternity-home@example.com
A J Hospital and Research Center,"8MWV+75R, MD Rd, Morikolong, Nagaon, Assam 782001, India",26.34574750,92.69289090,a-j-hospital-and-research-center,a-j-hospital-and-research-center@example.com
"ERC Eye Care Hub Hospital, Nagaon","Panigaon, Nagaon, Assam 782001, India",26.35056600,92.70900140,erc-eye-care-hub-hospital-nagaon,erc-eye-care-hub-hospital-nagaon@example.com
Kapili Hospital and Research Centre,"9P25+QCF, Netaji Rd, Panigaon, Nagaon, Assam 782003, India",26.35197960,92.70855340,kapili-hospital-and-research-centre,kapili-hospital-and-research-centre@example.com
Free Dialysis center,"N, Fakharuddin Ali Ahmed Rd, Haibargaon, Daccapatty, Nagaon, Assam 782001, India",26.34478970,92.69071160,free-dialysis-center,free-dialysis-center@example.com
ECHS Polyclinic (Army Hospital),"8MMX+8F3, Bengena Ati, Nagaon, Assam 782001, India",26.33326250,92.69867190,echs-polyclinic-army-hospital,echs-polyclinic-army-hospital@example.com
G.D. Nursing Home & Research Centre,"Ward No, 10, Bhola Baruah Rd, Nagaon, Assam 782001, India",26.35435270,92.68695710,gd-nursing-home-research-centre,gd-nursing-home-research-centre@example.com
Nagaon Police Hospital,"8MVM+J3R, Haibargaon, Fauzdaripatty, Nagaon, Assam 782003, India",26.34410130,92.68264820,nagaon-police-hospital,nagaon-police-hospital@example.com
গোহাঁই নাৰ্চিং হোম,"B.N.Mahanta Road, E Amolapatty, Nagaon, Assam 782001, India",26.35634860,92.68860990,1,1@example.com
Raahat Hospital and Research Centre,"9J8M+72F, Dhing Rd, Haibargaon, Shillongoni, Nagaon, Assam 782002, India",26.36568650,92.63255330,raahat-hospital-and-research-centre,raahat-hospital-and-research-centre@example.com
MSN CATARACT AND IOL HOSPITAL,"9M3R+99M, Tilak Deka Rd, Kenyapatty, Nagaon, Assam 782001, India",26.35346150,92.69091660,msn-cataract-and-iol-hospital,msn-cataract-and-iol-hospital@example.com
Haibargaon Nursing Home,"9M6M+MJX, Nagaon, Assam 782002, India",26.36174890,92.68410920,haibargaon-nursing-home,haibargaon-nursing-home@example.com
Dhing FRU Hospital,"FF4P+78X, Dhing, Assam 782123, India",26.45572840,92.48585660,dhing-fru-hospital,dhing-fru-hospital@example.com
Dagaon BPHC,"CJQ6+CF3, Da-Gaon, Assam 782124, India",26.43851230,92.61118080,dagaon-bphc,dagaon-bphc@example.com
BKB MEDICAL,"8MWQ+4GR, Haibargaon, Daccapatty, Nagaon, Assam 782001, India",26.34537230,92.68876730,bkb-medical,bkb-medical@example.com
City Hospital & Research Centre,"GNB Rd, Tinsukia, Assam 786125, India",27.48655800,95.35194000,city-hospital-research-centre,city-hospital-research-centre@example.com
Tinsukia Medical College & Hospital,"FCG8+CW3, Luhari Bongali Gaon, Assam 786146, India",27.47600520,95.41728910,tinsukia-medical-college-hospital,tinsukia-medical-college-hospital@example.com
Pinewood Hospital,"17, Subachani Rd, Tinsukia, Assam 786125, India",27.49697150,95.35165410,pinewood-hospital,pinewood-hospital@example.com
Tinsukia Civil Hospital,"Unnamed Road, Sector 1, Bordoloi Nagar, Tinsukia, Assam 786125, India",27.49844590,95.35874080,tinsukia-civil-hospital,tinsukia-civil-hospital@example.com
Life Line Hospital,"ATC Mall, GNB Rd, opposite to Tinsukia, Senairam Bazar, Tinsukia, Assam 786125, India",27.49260870,95.36099750,life-line-hospital1,life-line-hospital1@example.com
R.C. Agarwal Memorial Hospital,"Tinsukia, Assam 786125, India",27.48586410,95.38001030,rc-agarwal-memorial-hospital,rc-agarwal-memorial-hospital@example.com
Swastik Nursing Home,"F9J8+VFW Swastik Nursing Home, Jyoti Nagar, Tinsukia, Assam 786125, India",27.48128030,95.36581050,swastik-nursing-home,swastik-nursing-home@example.com
"Apollo Clinic , Tinsukia","Nilima Apartment, Rangagora Rd, opposite hotel jyoti, Tinsukia, Assam 786125, India",27.49329670,95.34934390,apollo-clinic-tinsukia,apollo-clinic-tinsukia@example.com
St Luke's Hospital,"Rangpuria, Near St Lukes Hospital, Tinsukia, Assam 786192, India",27.46496390,95.36203690,st-lukes-hospital,st-lukes-hospital@example.com
ESIC HOSPITAL,"F9X4+QP9, Bylane 2, Sector 2, Bordoloi Nagar, Tinsukia, Assam 786125, India",27.49940600,95.35684930,esic-hospital,esic-hospital@example.com
Biroja Hospital,"F9R2+GJ9, Durgabari, Tinsukia, Assam 786125, India",27.49129590,95.35160910,biroja-hospital,biroja-hospital@example.com
Aditya Diagnostics and Hospital,"F8VX+HJ8, Rangagora Rd, near City Life Shop, Tinsukia, Assam 786125, India",27.49422290,95.34850660,aditya-diagnostics-and-hospital,aditya-diagnostics-and-hospital@example.com
Assam Healthcare,"Rangagora Rd, opposite of Women's College, Durgabari, Tinsukia, Assam 786125, India",27.49136120,95.35136430,assam-healthcare,assam-healthcare@example.com
Borthakur Nursing Home and Research Centre in Tinsukia,"G936+9FV, Gelapukhuri Rd, Tinsukia, Assam 786125, India",27.50347950,95.36116850,borthakur-nursing-home-and-research-centre-in-tinsukia,borthakur-nursing-home-and-research-centre-in-tinsukia@example.com
city hospital,"F9R2+5RV, Panitola-Dinjan-Tinsukia Rd, Tinsukia, Assam 786125, India",27.49048450,95.35205940,city-hospital,city-hospital@example.com
C.B.Hospital,"F9X5+79P, Subachani Rd, Tinsukia, Assam 786125, India",27.49820150,95.35843890,cbhospital,cbhospital@example.com
Dey's Nursing Clinic,"Borpathar, S Dohatia Rd, Tinsukia, Assam 786125, India",27.48854910,95.34727400,deys-nursing-clinic,deys-nursing-clinic@example.com
ECHS POLYCLINIC TINSUKIA,"Assam Trunk Rd, Laipuli, Tinsukia, Assam 786125, India",27.47718890,95.31264060,echs-polyclinic-tinsukia,echs-polyclinic-tinsukia@example.com
"Civil Hospital New Complex, Tinsukia","F9X5+HCJ, Sector 1, Bordoloi Nagar, Tinsukia, Assam 786125, India",27.49896500,95.35847970,civil-hospital-new-complex-tinsukia,civil-hospital-new-complex-tinsukia@example.com
Karimganj Civil Hospital,"V996+5XQ, Hospital Rd, Karimganj, Assam 788710, India",24.86797020,92.36249380,karimganj-civil-hospital,karimganj-civil-hospital@example.com
"Red Cross Hospital, Sribhumi","V995+Q92, Karimganj Town, Karimganj, Assam 788710, India",24.86939350,92.35840130,red-cross-hospital-sribhumi,red-cross-hospital-sribhumi@example.com
Makunda Christian Leprosy and General Hospital,"C8JJ+R74, Bazaricherra, Karimganj, Assam 788727, India",24.43201970,92.33068940,makunda-christian-leprosy-and-general-hospital,makunda-christian-leprosy-and-general-hospital@example.com
IMS Hospital,"V9C5+GX7, Shahid Sarani, Settlement Road, Assam 788710, India",24.87128250,92.35992030,ims-hospital,ims-hospital@example.com
New Life Line Hospital,"Patharkandi Road, Kanishail, Banamali Pt I, Assam 788710, India",24.85729870,92.36901980,new-life-line-hospital,new-life-line-hospital@example.com
North SHRIBHUMI New Hospital,"V996+5XQ, Hospital Rd, Karimganj, Assam 788710, India",24.86796050,92.36251520,north-shribhumi-new-hospital,north-shribhumi-new-hospital@example.com
ILAAJ POLYCLINIC,"Ward No. 2, Maizdihi, Karimganj, Assam 788712, India",24.86529190,92.34241010,ilaaj-polyclinic,ilaaj-polyclinic@example.com
Nilambazar Hospital,"Jatrapur, Nilambazar, Assam 788722, India",24.74496930,92.34998320,nilambazar-hospital,nilambazar-hospital@example.com
Health Point,"Kabita Complex, Lokkhi Bazar Rd, Karimganj, Assam 788710, India",24.87188090,92.35564150,health-point,health-point@example.com
ASHIRWAD HOSPITAL & RESEARCH CENTRE,"V969+RQF, Station Rd, Karimganj, Assam 788710, India",24.86207210,92.36941410,ashirwad-hospital-research-centre,ashirwad-hospital-research-centre@example.com
Pragati Hospital and Research Centre,"NH 37, Jengonikatia, Sivasagar, Assam 785640, India",26.99779130,94.61926110,pragati-hospital-and-research-centre,pragati-hospital-and-research-centre@example.com
East Point Hospital & Research Centre,"XMP2+77W, BG Rd, Sivasagar, Assam 785640, India",26.98573630,94.65069530,east-point-hospital-research-centre,east-point-hospital-research-centre@example.com
Sampreeti Hospital,"XJVV+G8V, AT Rd, near Hotel Shmila, Milon Nagar, Kanak Nagar, Sivasagar, Assam 785640, India",26.99386330,94.64329170,sampreeti-hospital,sampreeti-hospital@example.com
"ERC Eye Care Hub Hospital, Sivasagar","Milon Nagar, Sivasagar, Assam 785640, India",26.99328900,94.64284680,erc-eye-care-hub-hospital-sivasagar,erc-eye-care-hub-hospital-sivasagar@example.com
ONGC Hospital,"XMJ2+7QM, ONGC Colony, Sivasagar, Assam 785697, India",26.98070250,94.65191540,ongc-hospital,ongc-hospital@example.com
Aditya Diagnostics and Hospital (Sivasagar),"HCB Rd, Amolapatty, Sivasagar, Assam 785640, India",26.97738770,94.63109840,aditya-diagnostics-and-hospital-sivasagar,aditya-diagnostics-and-hospital-sivasagar@example.com
SIVASAGAR NETRALAY KPM Chari Ali,"Ward No 10, KPM Chari Ali, Sivasagar, Assam 785640, India",26.98097390,94.63720360,sivasagar-netralay-kpm-chari-ali,sivasagar-netralay-kpm-chari-ali@example.com
Sarma Nursing Home,"Thana Rd, Sivasagar, Assam 785640, India",26.98309920,94.62956340,sarma-nursing-home,sarma-nursing-home@example.com
Sivasagar Netralay,"HCB Rd, Sivasagar, Assam 785640, India",26.98366460,94.63288610,sivasagar-netralay,sivasagar-netralay@example.com
Demow Model Hospital cum CHC,"4PRQ+6J3, Assam 785640, India",27.14050790,94.73903640,demow-model-hospital-cum-chc,demow-model-hospital-cum-chc@example.com
Sibsagar Civil Hospital,"XJPM+CC4, GNG Rd, Sivasagar, Assam 785640, India",26.98602120,94.63357430,sibsagar-civil-hospital,sibsagar-civil-hospital@example.com
SIBSAGAR DIAGNOSTIC & MEDICAL RESEARCH CENTRE,"GNG Rd, Sivasagar, Assam 785640, India",26.98645890,94.63626930,sibsagar-diagnostic-medical-research-centre,sibsagar-diagnostic-medical-research-centre@example.com
Sahar Scan And Research Centre,"Boarding Rd, Ward Number 4, Sivasagar, Assam 785640, India",26.98169610,94.63598030,sahar-scan-and-research-centre,sahar-scan-and-research-centre@example.com
LAL PATH LABS. ASTHA,"KHIZNUR, Na Ali Rd, Sivasagar, Assam 785640, India",26.98531660,94.62982880,lal-path-labs-astha,lal-path-labs-astha@example.com
Aarogya Diagnostics Centre,"PC Bezboruah Complex, Assam Trunk Rd, Amolapatty, Sivasagar, Assam 785640, India",26.97776140,94.63258730,aarogya-diagnostics-centre,aarogya-diagnostics-centre@example.com
METROPOLIS.SIVASAGAR,"XJPJ+42M, B.N.Hazarika Road, Gayan Gaon Rd, Goan, Sivasagar, Assam 785640, India",26.98533800,94.63005700,metropolissivasagar,metropolissivasagar@example.com
Maxcare ENT Clinic,"Sky Chef, Opposite Hotel, Assam Trunk Rd, Sivasagar, Assam 785640, India",26.98484620,94.63794460,maxcare-ent-clinic,maxcare-ent-clinic@example.com
SEKHMET SHINE DENTAL CLINIC,"XJVR+6XH, MILAN NAGAR, A T ROAD, Sivasagar, Assam, India",26.99305080,94.64247930,sekhmet-shine-dental-clinic,sekhmet-shine-dental-clinic@example.com
Rick Medical,"XJPM+25M, Temple Rd, near Bhagawati Metal store, Ward Number 4, Sivasagar, Assam 785640, India",26.98509400,94.63290830,rick-medical,rick-medical@example.com
Netra Jyoti Eye Hospital,"XJJQ+54V, Sivasagar, Assam 785640, India",26.98047770,94.63779180,netra-jyoti-eye-hospital,netra-jyoti-eye-hospital@example.com
Multi-Specialty Hospital Sivasagar,"3MRX+5R8, Assam Trunk Rd, Chengelijan Gaon, Dhyan Pathar, Assam 785672, India",27.09040520,94.69959010,multi-specialty-hospital-sivasagar,multi-specialty-hospital-sivasagar@example.com
Sivasagar Civil Hospital,"XJ46+467, Joysagar, Rupahi Pathar, Assam 785665, India",26.95527610,94.61055730,sivasagar-civil-hospital,sivasagar-civil-hospital@example.com
Dhubri Medical College and Hospital,"2XP7+5VV, Jhagrarpar, Dhubri, Jhagra Pt.I, Assam 783324, India",26.03549680,89.96465850,dhubri-medical-college-and-hospital,dhubri-medical-college-and-hospital@example.com
Chilarai Multispeciality Hospital,"2XMF+32W, Jhagrarpar, Dhubri, Assam 783324, India",26.03288670,89.97264860,chilarai-multispeciality-hospital,chilarai-multispeciality-hospital@example.com
Dhubri City Hospital,"2XCP+9H8, Boro Bazar, Dhubri, Assam 783301, India",26.02092030,89.98644910,dhubri-city-hospital,dhubri-city-hospital@example.com
Abdur Rahman multi speciality hospital,"01, Jhagrarpar, Dhubri, Jhagra Pt.II, Assam 783324, India",26.04933170,89.95179170,abdur-rahman-multi-speciality-hospital,abdur-rahman-multi-speciality-hospital@example.com
"T.B Hospital, Dhubri","2X8G+Q52, Santi Nagar, Dhubri, Assam 783301, India",26.01688450,89.97539610,tb-hospital-dhubri,tb-hospital-dhubri@example.com
